[{"OBJECT_NAME":"EXACTVIEW-1 (ADS-1B)","OBJECT_ID":"2012-039C","EPOCH":"2026-03-09T21:13:50.174400","MEAN_MOTION":14.24951198,"ECCENTRICITY":0.00118702,"INCLINATION":98.9638,"RA_OF_ASC_NODE":184.1041,"ARG_OF_PERICENTER":97.8489,"MEAN_ANOMALY":262.4037,"EPHEMERIS_TYPE":0,"CLASSIFICATION_TYPE":"U","NORAD_CAT_ID":38709,"ELEMENT_SET_NO":999,"REV_AT_EPOCH":70856,"BSTAR":0.0001068616,"MEAN_MOTION_DOT":2.04e-6,"MEAN_MOTION_DDOT":0},{"OBJECT_NAME":"NOAA 16 DEB","OBJECT_ID":"2000-055AE","EPOCH":"2026-03-09T19:43:44.250816","MEAN_MOTION":14.29254397,"ECCENTRICITY":0.00089973,"INCLINATION":98.812,"RA_OF_ASC_NODE":175.9794,"ARG_OF_PERICENTER":270.073,"MEAN_ANOMALY":89.942,"EPHEMERIS_TYPE":0,"CLASSIFICATION_TYPE":"U","NORAD_CAT_ID":41071,"ELEMENT_SET_NO":999,"REV_AT_EPOCH":53168,"BSTAR":0.0018148103,"MEAN_MOTION_DOT":4.573e-5,"MEAN_MOTION_DDOT":0}]
